start=new Date('2022-03-08T00:00:00.000Z').valueOf();
sats=[{"OBJECT_TYPE":"PAYLOAD","RA_OF_ASC_NODE":"68.7048","MEAN_MOTION_DDOT":"0.0000000000000","FILE":"3349821","PERIOD":"91.539","MEAN_ANOMALY":"227.9227","ARG_OF_PERICENTER":"57.4446","EPHEMERIS_TYPE":"0","RCS_SIZE":"LARGE","BSTAR":"0.00068994000000","TLE_LINE2":"2 51724  53.2182  68.7048 0001236  57.4446 227.9227 15.73094007  2949","CLASSIFICATION_TYPE":"U","MEAN_ELEMENT_THEORY":"SGP4","CENTER_NAME":"EARTH","OBJECT_NAME":"STARLINK-3529","INCLINATION":"53.2182","ECCENTRICITY":"0.00012360","EPOCH":"2022-03-07T22:00:00.999936","TLE_LINE1":"1 51724U 22016L   22066.91667824  .00096889  00000-0  68994-3 0  9998","COUNTRY_CODE":"US","GP_ID":"198192030","TIME_SYSTEM":"UTC","APOAPSIS":"350.894","OBJECT_ID":"2022-016L","MEAN_MOTION_DOT":"0.00096889","LAUNCH_DATE":"2022-02-21","REF_FRAME":"TEME","SEMIMAJOR_AXIS":"6728.197","MEAN_MOTION":"15.73094007","ELEMENT_SET_NO":"999","SITE":"AFETR","PERIAPSIS":"349.231","REV_AT_EPOCH":"294","DECAY_DATE":null,"NORAD_CAT_ID":"51724"},{"EPHEMERIS_TYPE":"0","RCS_SIZE":"LARGE","BSTAR":"0.00084011000000","TLE_LINE2":"2 51725  53.2200  68.7097 0001150  60.7080 222.7158 15.73077505  3548","CLASSIFICATION_TYPE":"U","MEAN_ELEMENT_THEORY":"SGP4","CENTER_NAME":"EARTH","OBJECT_NAME":"STARLINK-3522","INCLINATION":"53.2200","OBJECT_TYPE":"PAYLOAD","RA_OF_ASC_NODE":"68.7097","MEAN_MOTION_DDOT":"0.0000000000000","FILE":"3349741","PERIOD":"91.540","MEAN_ANOMALY":"222.7158","ARG_OF_PERICENTER":"60.7080","MEAN_MOTION_DOT":"0.00118333","OBJECT_ID":"2022-016M","LAUNCH_DATE":"2022-02-21","REF_FRAME":"TEME","SEMIMAJOR_AXIS":"6728.244","ELEMENT_SET_NO":"999","MEAN_MOTION":"15.73077505","SITE":"AFETR","PERIAPSIS":"349.336","REV_AT_EPOCH":"354","DECAY_DATE":null,"NORAD_CAT_ID":"51725","ECCENTRICITY":"0.00011500","EPOCH":"2022-03-07T22:00:00.999936","TLE_LINE1":"1 51725U 22016M   22066.91667824  .00118333  00000-0  84011-3 0  9996","GP_ID":"198165584","COUNTRY_CODE":"US","TIME_SYSTEM":"UTC","APOAPSIS":"350.883"},{"PERIOD":"91.540","MEAN_ANOMALY":"219.1356","ARG_OF_PERICENTER":"67.4832","OBJECT_TYPE":"PAYLOAD","RA_OF_ASC_NODE":"68.7024","MEAN_MOTION_DDOT":"0.0000000000000","FILE":"3349739","CLASSIFICATION_TYPE":"U","CENTER_NAME":"EARTH","MEAN_ELEMENT_THEORY":"SGP4","OBJECT_NAME":"STARLINK-3527","INCLINATION":"53.2183","EPHEMERIS_TYPE":"0","RCS_SIZE":"LARGE","BSTAR":"0.00080108000000","TLE_LINE2":"2 51726  53.2183  68.7024 0001206  67.4832 219.1356 15.73086784  3471","TIME_SYSTEM":"UTC","APOAPSIS":"350.894","ECCENTRICITY":"0.00012060","EPOCH":"2022-03-07T22:00:00.999936","COUNTRY_CODE":"US","TLE_LINE1":"1 51726U 22016N   22066.91667824  .00112777  00000-0  80108-3 0  9996","GP_ID":"198165567","REV_AT_EPOCH":"347","PERIAPSIS":"349.272","DECAY_DATE":null,"NORAD_CAT_ID":"51726","MEAN_MOTION_DOT":"0.00112777","OBJECT_ID":"2022-016N","LAUNCH_DATE":"2022-02-21","REF_FRAME":"TEME","SEMIMAJOR_AXIS":"6728.218","MEAN_MOTION":"15.73086784","ELEMENT_SET_NO":"999","SITE":"AFETR"},{"CENTER_NAME":"EARTH","MEAN_ELEMENT_THEORY":"SGP4","OBJECT_NAME":"STARLINK-3532","INCLINATION":"53.2201","CLASSIFICATION_TYPE":"U","TLE_LINE2":"2 51727  53.2201  68.7072 0001063  53.3184 231.4031 15.73081567  2943","BSTAR":"0.00072383000000","EPHEMERIS_TYPE":"0","RCS_SIZE":"LARGE","ARG_OF_PERICENTER":"53.3184","PERIOD":"91.540","MEAN_ANOMALY":"231.4031","FILE":"3349821","MEAN_MOTION_DDOT":"0.0000000000000","OBJECT_TYPE":"PAYLOAD","RA_OF_ASC_NODE":"68.7072","NORAD_CAT_ID":"51727","DECAY_DATE":null,"REV_AT_EPOCH":"294","PERIAPSIS":"349.383","MEAN_MOTION":"15.73081567","ELEMENT_SET_NO":"999","SITE":"AFETR","LAUNCH_DATE":"2022-02-21","REF_FRAME":"TEME","SEMIMAJOR_AXIS":"6728.233","OBJECT_ID":"2022-016P","MEAN_MOTION_DOT":"0.00101683","APOAPSIS":"350.813","TIME_SYSTEM":"UTC","COUNTRY_CODE":"US","TLE_LINE1":"1 51727U 22016P   22066.91667824  .00101683  00000-0  72383-3 0  9997","GP_ID":"198191482","ECCENTRICITY":"0.00010630","EPOCH":"2022-03-07T22:00:00.999936"},{"APOAPSIS":"350.689","TIME_SYSTEM":"UTC","EPOCH":"2022-03-07T22:00:00.999936","ECCENTRICITY":"0.00010680","TLE_LINE1":"1 51728U 22016Q   22066.91667824  .00026612  00000-0  19403-3 0  9990","COUNTRY_CODE":"US","GP_ID":"198165594","PERIAPSIS":"349.252","REV_AT_EPOCH":"354","NORAD_CAT_ID":"51728","DECAY_DATE":null,"MEAN_MOTION_DOT":"0.00026612","OBJECT_ID":"2022-016Q","SITE":"AFETR","MEAN_MOTION":"15.73126356","ELEMENT_SET_NO":"999","SEMIMAJOR_AXIS":"6728.105","REF_FRAME":"TEME","LAUNCH_DATE":"2022-02-21","ARG_OF_PERICENTER":"62.8053","MEAN_ANOMALY":"225.1376","PERIOD":"91.537","MEAN_MOTION_DDOT":"0.0000000000000","RA_OF_ASC_NODE":"68.6998","OBJECT_TYPE":"PAYLOAD","FILE":"3349741","CLASSIFICATION_TYPE":"U","OBJECT_NAME":"STARLINK-3448","INCLINATION":"53.2184","MEAN_ELEMENT_THEORY":"SGP4","CENTER_NAME":"EARTH","BSTAR":"0.00019403000000","RCS_SIZE":"LARGE","EPHEMERIS_TYPE":"0","TLE_LINE2":"2 51728  53.2184  68.6998 0001068  62.8053 225.1376 15.73126356  3540"},{"FILE":"3349821","RA_OF_ASC_NODE":"68.7029","OBJECT_TYPE":"PAYLOAD","MEAN_MOTION_DDOT":"0.0000000000000","PERIOD":"91.538","MEAN_ANOMALY":"236.1924","ARG_OF_PERICENTER":"49.8858","TLE_LINE2":"2 51729  53.2179  68.7029 0001187  49.8858 236.1924 15.73110801  2943","EPHEMERIS_TYPE":"0","RCS_SIZE":"LARGE","BSTAR":"0.00069916000000","CENTER_NAME":"EARTH","MEAN_ELEMENT_THEORY":"SGP4","INCLINATION":"53.2179","OBJECT_NAME":"STARLINK-3523","CLASSIFICATION_TYPE":"U","TLE_LINE1":"1 51729U 22016R   22066.91667824  .00098279  00000-0  69916-3 0  9993","COUNTRY_CODE":"US","GP_ID":"198191921","ECCENTRICITY":"0.00011870","EPOCH":"2022-03-07T22:00:00.999936","TIME_SYSTEM":"UTC","APOAPSIS":"350.813","LAUNCH_DATE":"2022-02-21","REF_FRAME":"TEME","SEMIMAJOR_AXIS":"6728.149","ELEMENT_SET_NO":"999","MEAN_MOTION":"15.73110801","SITE":"AFETR","MEAN_MOTION_DOT":"0.00098279","OBJECT_ID":"2022-016R","DECAY_DATE":null,"NORAD_CAT_ID":"51729","PERIAPSIS":"349.216","REV_AT_EPOCH":"294"},{"CLASSIFICATION_TYPE":"U","OBJECT_NAME":"STARLINK-3530","INCLINATION":"53.2184","MEAN_ELEMENT_THEORY":"SGP4","CENTER_NAME":"EARTH","BSTAR":"0.00073003000000","RCS_SIZE":"LARGE","EPHEMERIS_TYPE":"0","TLE_LINE2":"2 51730  53.2184  68.6973 0001293  70.7905 218.4059 15.73079758  3478","ARG_OF_PERICENTER":"70.7905","MEAN_ANOMALY":"218.4059","PERIOD":"91.540","MEAN_MOTION_DDOT":"0.0000000000000","RA_OF_ASC_NODE":"68.6973","OBJECT_TYPE":"PAYLOAD","FILE":"3349751","PERIAPSIS":"349.233","REV_AT_EPOCH":"347","NORAD_CAT_ID":"51730","DECAY_DATE":null,"MEAN_MOTION_DOT":"0.00102563","OBJECT_ID":"2022-016S","SITE":"AFETR","MEAN_MOTION":"15.73079758","ELEMENT_SET_NO":"999","REF_FRAME":"TEME","SEMIMAJOR_AXIS":"6728.238","LAUNCH_DATE":"2022-02-21","APOAPSIS":"350.973","TIME_SYSTEM":"UTC","EPOCH":"2022-03-07T22:00:00.999936","ECCENTRICITY":"0.00012930","TLE_LINE1":"1 51730U 22016S   22066.91667824  .00102563  00000-0  73003-3 0  9999","COUNTRY_CODE":"US","GP_ID":"198165605"},{"TIME_SYSTEM":"UTC","APOAPSIS":"351.042","TLE_LINE1":"1 51731U 22016T   22066.91667824  .00099822  00000-0  71063-3 0  9997","GP_ID":"198165598","COUNTRY_CODE":"US","ECCENTRICITY":"0.00014280","EPOCH":"2022-03-07T22:00:00.999936","DECAY_DATE":null,"NORAD_CAT_ID":"51731","REV_AT_EPOCH":"352","PERIAPSIS":"349.120","LAUNCH_DATE":"2022-02-21","REF_FRAME":"TEME","SEMIMAJOR_AXIS":"6728.216","ELEMENT_SET_NO":"999","MEAN_MOTION":"15.73087572","SITE":"AFETR","OBJECT_ID":"2022-016T","MEAN_MOTION_DOT":"0.00099822","PERIOD":"91.540","MEAN_ANOMALY":"222.5318","ARG_OF_PERICENTER":"64.7897","FILE":"3349751","OBJECT_TYPE":"PAYLOAD","RA_OF_ASC_NODE":"68.7007","MEAN_MOTION_DDOT":"0.0000000000000","CENTER_NAME":"EARTH","MEAN_ELEMENT_THEORY":"SGP4","OBJECT_NAME":"STARLINK-3514","INCLINATION":"53.2181","CLASSIFICATION_TYPE":"U","TLE_LINE2":"2 51731  53.2181  68.7007 0001428  64.7897 222.5318 15.73087572  3521","EPHEMERIS_TYPE":"0","RCS_SIZE":"LARGE","BSTAR":"0.00071063000000"},{"TIME_SYSTEM":"UTC","APOAPSIS":"350.863","ECCENTRICITY":"0.00012390","EPOCH":"2022-03-07T22:00:00.999936","TLE_LINE1":"1 51732U 22016U   22066.91667824  .00099151  00000-0  70540-3 0  9992","COUNTRY_CODE":"US","GP_ID":"198192031","REV_AT_EPOCH":"294","PERIAPSIS":"349.196","DECAY_DATE":null,"NORAD_CAT_ID":"51732","MEAN_MOTION_DOT":"0.00099151","OBJECT_ID":"2022-016U","LAUNCH_DATE":"2022-02-21","SEMIMAJOR_AXIS":"6728.164","REF_FRAME":"TEME","MEAN_MOTION":"15.73105641","ELEMENT_SET_NO":"999","SITE":"AFETR","PERIOD":"91.539","MEAN_ANOMALY":"222.8666","ARG_OF_PERICENTER":"67.0126","OBJECT_TYPE":"PAYLOAD","RA_OF_ASC_NODE":"68.6963","MEAN_MOTION_DDOT":"0.0000000000000","FILE":"3349821","CLASSIFICATION_TYPE":"U","CENTER_NAME":"EARTH","MEAN_ELEMENT_THEORY":"SGP4","INCLINATION":"53.2185","OBJECT_NAME":"STARLINK-3518","EPHEMERIS_TYPE":"0","RCS_SIZE":"LARGE","BSTAR":"0.00070540000000","TLE_LINE2":"2 51732  53.2185  68.6963 0001239  67.0126 222.8666 15.73105641  2949"},{"OBJECT_TYPE":"PAYLOAD","RA_OF_ASC_NODE":"68.6979","MEAN_MOTION_DDOT":"0.0000000000000","FILE":"3349740","PERIOD":"91.536","MEAN_ANOMALY":"227.6042","ARG_OF_PERICENTER":"60.9799","EPHEMERIS_TYPE":"0","RCS_SIZE":"LARGE","BSTAR":"0.00071192000000","TLE_LINE2":"2 51733  53.2180  68.6979 0001375  60.9799 227.6042 15.73145311  3479","CLASSIFICATION_TYPE":"U","CENTER_NAME":"EARTH","MEAN_ELEMENT_THEORY":"SGP4","OBJECT_NAME":"STARLINK-3525","INCLINATION":"53.2180","ECCENTRICITY":"0.00013750","EPOCH":"2022-03-07T22:00:00.999936","COUNTRY_CODE":"US","TLE_LINE1":"1 51733U 22016V   22066.91667824  .00100257  00000-0  71192-3 0  9997","GP_ID":"198165575","TIME_SYSTEM":"UTC","APOAPSIS":"350.841","MEAN_MOTION_DOT":"0.00100257","OBJECT_ID":"2022-016V","LAUNCH_DATE":"2022-02-21","REF_FRAME":"TEME","SEMIMAJOR_AXIS":"6728.051","ELEMENT_SET_NO":"999","MEAN_MOTION":"15.73145311","SITE":"AFETR","REV_AT_EPOCH":"347","PERIAPSIS":"348.991","DECAY_DATE":null,"NORAD_CAT_ID":"51733"}];
